[{"OBJECT_NAME":"TEVEL2-3","OBJECT_ID":"2025-052J","EPOCH":"2026-03-09T15:29:22.754400","MEAN_MOTION":15.30377031,"ECCENTRICITY":0.0004761,"INCLINATION":97.3994,"RA_OF_ASC_NODE":324.7775,"ARG_OF_PERICENTER":105.7353,"MEAN_ANOMALY":254.4413,"EPHEMERIS_TYPE":0,"CLASSIFICATION_TYPE":"U","NORAD_CAT_ID":63218,"ELEMENT_SET_NO":999,"REV_AT_EPOCH":5485,"BSTAR":0.00069446,"MEAN_MOTION_DOT":0.00020365,"MEAN_MOTION_DDOT":0},{"OBJECT_NAME":"STARLINK-35233","OBJECT_ID":"2025-212C","EPOCH":"2026-03-09T23:29:13.733088","MEAN_MOTION":15.30200663,"ECCENTRICITY":0.00010187,"INCLINATION":53.1597,"RA_OF_ASC_NODE":344.6283,"ARG_OF_PERICENTER":107.3573,"MEAN_ANOMALY":252.754,"EPHEMERIS_TYPE":0,"CLASSIFICATION_TYPE":"U","NORAD_CAT_ID":65678,"ELEMENT_SET_NO":999,"REV_AT_EPOCH":2729,"BSTAR":0.00052780847,"MEAN_MOTION_DOT":0.00015306,"MEAN_MOTION_DDOT":0}]
